[{"OBJECT_NAME":"ONEWEB-0264","OBJECT_ID":"2021-060R","EPOCH":"2025-09-10T08:43:25.922208","MEAN_MOTION":13.16592788,"ECCENTRICITY":0.00018367,"INCLINATION":87.8978,"RA_OF_ASC_NODE":284.5676,"ARG_OF_PERICENTER":85.4702,"MEAN_ANOMALY":274.6639,"EPHEMERIS_TYPE":0,"CLASSIFICATION_TYPE":"U","NORAD_CAT_ID":48982,"ELEMENT_SET_NO":999,"REV_AT_EPOCH":20277,"BSTAR":8.2507428e-5,"MEAN_MOTION_DOT":4.4e-7,"MEAN_MOTION_DDOT":0},{"OBJECT_NAME":"ONEWEB-0266","OBJECT_ID":"2021-060T","EPOCH":"2025-09-10T09:14:13.517952","MEAN_MOTION":13.16594722,"ECCENTRICITY":0.00019161,"INCLINATION":87.8987,"RA_OF_ASC_NODE":284.5401,"ARG_OF_PERICENTER":98.8533,"MEAN_ANOMALY":261.2815,"EPHEMERIS_TYPE":0,"CLASSIFICATION_TYPE":"U","NORAD_CAT_ID":48984,"ELEMENT_SET_NO":999,"REV_AT_EPOCH":20276,"BSTAR":9.2017766e-5,"MEAN_MOTION_DOT":4.8e-7,"MEAN_MOTION_DDOT":0},{"OBJECT_NAME":"ONEWEB-0267","OBJECT_ID":"2021-060U","EPOCH":"2025-09-10T00:23:00.366144","MEAN_MOTION":13.16594835,"ECCENTRICITY":0.00016459,"INCLINATION":87.8988,"RA_OF_ASC_NODE":284.6165,"ARG_OF_PERICENTER":88.2629,"MEAN_ANOMALY":271.869,"EPHEMERIS_TYPE":0,"CLASSIFICATION_TYPE":"U","NORAD_CAT_ID":48985,"ELEMENT_SET_NO":999,"REV_AT_EPOCH":20272,"BSTAR":0.0001479656,"MEAN_MOTION_DOT":6.9e-7,"MEAN_MOTION_DDOT":0},{"OBJECT_NAME":"ONEWEB-0268","OBJECT_ID":"2021-060V","EPOCH":"2025-09-10T01:26:49.840512","MEAN_MOTION":13.1659459,"ECCENTRICITY":0.00019071,"INCLINATION":87.8986,"RA_OF_ASC_NODE":284.6136,"ARG_OF_PERICENTER":90.0108,"MEAN_ANOMALY":270.1242,"EPHEMERIS_TYPE":0,"CLASSIFICATION_TYPE":"U","NORAD_CAT_ID":48986,"ELEMENT_SET_NO":999,"REV_AT_EPOCH":20299,"BSTAR":0.00016673911,"MEAN_MOTION_DOT":7.7e-7,"MEAN_MOTION_DDOT":0},{"OBJECT_NAME":"ONEWEB-0269","OBJECT_ID":"2021-060W","EPOCH":"2025-09-10T08:17:13.721280","MEAN_MOTION":13.1659395,"ECCENTRICITY":0.00020602,"INCLINATION":87.8981,"RA_OF_ASC_NODE":284.5872,"ARG_OF_PERICENTER":92.5935,"MEAN_ANOMALY":267.5432,"EPHEMERIS_TYPE":0,"CLASSIFICATION_TYPE":"U","NORAD_CAT_ID":48987,"ELEMENT_SET_NO":999,"REV_AT_EPOCH":20280,"BSTAR":-3.4159845e-5,"MEAN_MOTION_DOT":0,"MEAN_MOTION_DDOT":0},{"OBJECT_NAME":"ONEWEB-0270","OBJECT_ID":"2021-060X","EPOCH":"2025-09-10T08:42:18.288288","MEAN_MOTION":13.16593501,"ECCENTRICITY":0.00014158,"INCLINATION":87.8986,"RA_OF_ASC_NODE":284.555,"ARG_OF_PERICENTER":95.4825,"MEAN_ANOMALY":264.6467,"EPHEMERIS_TYPE":0,"CLASSIFICATION_TYPE":"U","NORAD_CAT_ID":48988,"ELEMENT_SET_NO":999,"REV_AT_EPOCH":20284,"BSTAR":-0.00019365829,"MEAN_MOTION_DOT":-6.1e-7,"MEAN_MOTION_DDOT":0},{"OBJECT_NAME":"ONEWEB-0271","OBJECT_ID":"2021-060Y","EPOCH":"2025-09-10T08:24:03.843072","MEAN_MOTION":13.16594637,"ECCENTRICITY":0.00016445,"INCLINATION":87.8989,"RA_OF_ASC_NODE":284.5413,"ARG_OF_PERICENTER":88.697,"MEAN_ANOMALY":271.4349,"EPHEMERIS_TYPE":0,"CLASSIFICATION_TYPE":"U","NORAD_CAT_ID":48989,"ELEMENT_SET_NO":999,"REV_AT_EPOCH":20284,"BSTAR":-0.00016179601,"MEAN_MOTION_DOT":-4.9e-7,"MEAN_MOTION_DDOT":0},{"OBJECT_NAME":"ONEWEB-0272","OBJECT_ID":"2021-060Z","EPOCH":"2025-09-10T10:45:24.240672","MEAN_MOTION":13.16596044,"ECCENTRICITY":0.00017605,"INCLINATION":87.898,"RA_OF_ASC_NODE":284.5501,"ARG_OF_PERICENTER":86.0236,"MEAN_ANOMALY":274.1096,"EPHEMERIS_TYPE":0,"CLASSIFICATION_TYPE":"U","NORAD_CAT_ID":48990,"ELEMENT_SET_NO":999,"REV_AT_EPOCH":20280,"BSTAR":0.00024262487,"MEAN_MOTION_DOT":1.06e-6,"MEAN_MOTION_DDOT":0},{"OBJECT_NAME":"ONEWEB-0273","OBJECT_ID":"2021-060AA","EPOCH":"2025-09-10T02:10:10.316352","MEAN_MOTION":13.16594492,"ECCENTRICITY":0.00017012,"INCLINATION":87.8988,"RA_OF_ASC_NODE":284.6092,"ARG_OF_PERICENTER":94.6176,"MEAN_ANOMALY":265.5149,"EPHEMERIS_TYPE":0,"CLASSIFICATION_TYPE":"U","NORAD_CAT_ID":48991,"ELEMENT_SET_NO":999,"REV_AT_EPOCH":20273,"BSTAR":0.00026987938,"MEAN_MOTION_DOT":1.16e-6,"MEAN_MOTION_DDOT":0},{"OBJECT_NAME":"ONEWEB-0274","OBJECT_ID":"2021-060AB","EPOCH":"2025-09-10T08:14:57.027840","MEAN_MOTION":13.16594245,"ECCENTRICITY":0.00020019,"INCLINATION":87.898,"RA_OF_ASC_NODE":284.5904,"ARG_OF_PERICENTER":81.5289,"MEAN_ANOMALY":278.6069,"EPHEMERIS_TYPE":0,"CLASSIFICATION_TYPE":"U","NORAD_CAT_ID":48992,"ELEMENT_SET_NO":999,"REV_AT_EPOCH":20280,"BSTAR":-1.3465028e-5,"MEAN_MOTION_DOT":8.0e-8,"MEAN_MOTION_DDOT":0},{"OBJECT_NAME":"ONEWEB-0275","OBJECT_ID":"2021-060AC","EPOCH":"2025-09-10T02:30:40.460544","MEAN_MOTION":13.16593988,"ECCENTRICITY":0.00018454,"INCLINATION":87.8987,"RA_OF_ASC_NODE":284.601,"ARG_OF_PERICENTER":89.6549,"MEAN_ANOMALY":270.4793,"EPHEMERIS_TYPE":0,"CLASSIFICATION_TYPE":"U","NORAD_CAT_ID":48993,"ELEMENT_SET_NO":999,"REV_AT_EPOCH":20270,"BSTAR":-0.00015077412,"MEAN_MOTION_DOT":-4.5e-7,"MEAN_MOTION_DDOT":0},{"OBJECT_NAME":"ONEWEB-0276","OBJECT_ID":"2021-060AD","EPOCH":"2025-09-10T08:46:51.724416","MEAN_MOTION":13.16595229,"ECCENTRICITY":0.00017639,"INCLINATION":87.8987,"RA_OF_ASC_NODE":284.5462,"ARG_OF_PERICENTER":97.9336,"MEAN_ANOMALY":262.1995,"EPHEMERIS_TYPE":0,"CLASSIFICATION_TYPE":"U","NORAD_CAT_ID":48994,"ELEMENT_SET_NO":999,"REV_AT_EPOCH":20275,"BSTAR":0.00022662341,"MEAN_MOTION_DOT":9.9e-7,"MEAN_MOTION_DDOT":0},{"OBJECT_NAME":"ONEWEB-0277","OBJECT_ID":"2021-060AE","EPOCH":"2025-09-09T23:57:54.698400","MEAN_MOTION":13.1659486,"ECCENTRICITY":0.00015411,"INCLINATION":87.8982,"RA_OF_ASC_NODE":284.6528,"ARG_OF_PERICENTER":86.9102,"MEAN_ANOMALY":273.2206,"EPHEMERIS_TYPE":0,"CLASSIFICATION_TYPE":"U","NORAD_CAT_ID":48995,"ELEMENT_SET_NO":999,"REV_AT_EPOCH":20269,"BSTAR":0.00020946064,"MEAN_MOTION_DOT":9.3e-7,"MEAN_MOTION_DDOT":0},{"OBJECT_NAME":"ONEWEB-0278","OBJECT_ID":"2021-060AF","EPOCH":"2025-09-10T01:33:40.111776","MEAN_MOTION":13.16595632,"ECCENTRICITY":0.00019448,"INCLINATION":87.8988,"RA_OF_ASC_NODE":284.6029,"ARG_OF_PERICENTER":100.2013,"MEAN_ANOMALY":259.9337,"EPHEMERIS_TYPE":0,"CLASSIFICATION_TYPE":"U","NORAD_CAT_ID":48996,"ELEMENT_SET_NO":999,"REV_AT_EPOCH":20283,"BSTAR":0.00022553343,"MEAN_MOTION_DOT":9.9e-7,"MEAN_MOTION_DDOT":0},{"OBJECT_NAME":"ONEWEB-0279","OBJECT_ID":"2021-060AG","EPOCH":"2025-09-09T23:55:37.354368","MEAN_MOTION":13.16596098,"ECCENTRICITY":0.000167,"INCLINATION":87.8986,"RA_OF_ASC_NODE":284.6122,"ARG_OF_PERICENTER":84.8031,"MEAN_ANOMALY":275.3291,"EPHEMERIS_TYPE":0,"CLASSIFICATION_TYPE":"U","NORAD_CAT_ID":48997,"ELEMENT_SET_NO":999,"REV_AT_EPOCH":20275,"BSTAR":0.00011294846,"MEAN_MOTION_DOT":5.6e-7,"MEAN_MOTION_DDOT":0},{"OBJECT_NAME":"ONEWEB-0280","OBJECT_ID":"2021-060AH","EPOCH":"2025-09-09T18:48:59.496480","MEAN_MOTION":13.16593145,"ECCENTRICITY":0.00016086,"INCLINATION":87.8989,"RA_OF_ASC_NODE":284.6627,"ARG_OF_PERICENTER":100.6289,"MEAN_ANOMALY":259.5023,"EPHEMERIS_TYPE":0,"CLASSIFICATION_TYPE":"U","NORAD_CAT_ID":48998,"ELEMENT_SET_NO":999,"REV_AT_EPOCH":20266,"BSTAR":0.00011472928,"MEAN_MOTION_DOT":5.7e-7,"MEAN_MOTION_DDOT":0},{"OBJECT_NAME":"ONEWEB-0281","OBJECT_ID":"2021-060AJ","EPOCH":"2025-09-10T00:25:17.392224","MEAN_MOTION":13.16594206,"ECCENTRICITY":0.00019711,"INCLINATION":87.8988,"RA_OF_ASC_NODE":284.6129,"ARG_OF_PERICENTER":89.2761,"MEAN_ANOMALY":270.8595,"EPHEMERIS_TYPE":0,"CLASSIFICATION_TYPE":"U","NORAD_CAT_ID":48999,"ELEMENT_SET_NO":999,"REV_AT_EPOCH":20276,"BSTAR":0.00011153443,"MEAN_MOTION_DOT":5.6e-7,"MEAN_MOTION_DDOT":0},{"OBJECT_NAME":"ONEWEB-0282","OBJECT_ID":"2021-060AK","EPOCH":"2025-09-10T08:26:20.509728","MEAN_MOTION":13.1659459,"ECCENTRICITY":0.00017077,"INCLINATION":87.8988,"RA_OF_ASC_NODE":284.5559,"ARG_OF_PERICENTER":94.5565,"MEAN_ANOMALY":265.5761,"EPHEMERIS_TYPE":0,"CLASSIFICATION_TYPE":"U","NORAD_CAT_ID":49000,"ELEMENT_SET_NO":999,"REV_AT_EPOCH":20278,"BSTAR":3.4488426e-5,"MEAN_MOTION_DOT":2.6e-7,"MEAN_MOTION_DDOT":0},{"OBJECT_NAME":"ONEWEB-0283","OBJECT_ID":"2021-060AL","EPOCH":"2025-09-10T08:10:22.707840","MEAN_MOTION":13.16595352,"ECCENTRICITY":0.00017184,"INCLINATION":87.8982,"RA_OF_ASC_NODE":284.5606,"ARG_OF_PERICENTER":89.597,"MEAN_ANOMALY":270.5358,"EPHEMERIS_TYPE":0,"CLASSIFICATION_TYPE":"U","NORAD_CAT_ID":49001,"ELEMENT_SET_NO":999,"REV_AT_EPOCH":20279,"BSTAR":-0.00013621415,"MEAN_MOTION_DOT":-3.9e-7,"MEAN_MOTION_DDOT":0},{"OBJECT_NAME":"ONEWEB-0284","OBJECT_ID":"2021-060AM","EPOCH":"2025-09-10T02:32:57.689664","MEAN_MOTION":13.16595067,"ECCENTRICITY":0.00019293,"INCLINATION":87.8998,"RA_OF_ASC_NODE":284.588,"ARG_OF_PERICENTER":102.6307,"MEAN_ANOMALY":257.5039,"EPHEMERIS_TYPE":0,"CLASSIFICATION_TYPE":"U","NORAD_CAT_ID":49002,"ELEMENT_SET_NO":999,"REV_AT_EPOCH":20274,"BSTAR":-3.3214175e-5,"MEAN_MOTION_DOT":0,"MEAN_MOTION_DDOT":0},{"OBJECT_NAME":"ONEWEB-0285","OBJECT_ID":"2021-075A","EPOCH":"2025-09-10T02:49:07.387104","MEAN_MOTION":13.12442116,"ECCENTRICITY":0.000164,"INCLINATION":87.8895,"RA_OF_ASC_NODE":46.3047,"ARG_OF_PERICENTER":95.3262,"MEAN_ANOMALY":264.8054,"EPHEMERIS_TYPE":0,"CLASSIFICATION_TYPE":"U","NORAD_CAT_ID":49075,"ELEMENT_SET_NO":999,"REV_AT_EPOCH":19847,"BSTAR":0.00093955492,"MEAN_MOTION_DOT":3.51e-6,"MEAN_MOTION_DDOT":0},{"OBJECT_NAME":"ONEWEB-0286","OBJECT_ID":"2021-075B","EPOCH":"2025-09-10T09:42:07.809120","MEAN_MOTION":13.12442925,"ECCENTRICITY":0.00018741,"INCLINATION":87.8902,"RA_OF_ASC_NODE":46.2821,"ARG_OF_PERICENTER":93.489,"MEAN_ANOMALY":266.6453,"EPHEMERIS_TYPE":0,"CLASSIFICATION_TYPE":"U","NORAD_CAT_ID":49076,"ELEMENT_SET_NO":999,"REV_AT_EPOCH":19786,"BSTAR":0.00059977804,"MEAN_MOTION_DOT":2.29e-6,"MEAN_MOTION_DDOT":0},{"OBJECT_NAME":"ONEWEB-0287","OBJECT_ID":"2021-075C","EPOCH":"2025-09-10T10:01:37.419744","MEAN_MOTION":13.17646582,"ECCENTRICITY":0.00020515,"INCLINATION":87.9047,"RA_OF_ASC_NODE":61.5148,"ARG_OF_PERICENTER":92.8069,"MEAN_ANOMALY":267.3298,"EPHEMERIS_TYPE":0,"CLASSIFICATION_TYPE":"U","NORAD_CAT_ID":49077,"ELEMENT_SET_NO":999,"REV_AT_EPOCH":19678,"BSTAR":-0.00010250588,"MEAN_MOTION_DOT":-2.7e-7,"MEAN_MOTION_DDOT":0}]
